[{"OBJECT_NAME":"QIANFAN-21","OBJECT_ID":"2024-185C","EPOCH":"2026-03-09T23:11:03.920640","MEAN_MOTION":14.22734833,"ECCENTRICITY":0.00130039,"INCLINATION":88.9681,"RA_OF_ASC_NODE":66.7409,"ARG_OF_PERICENTER":81.1946,"MEAN_ANOMALY":279.0717,"EPHEMERIS_TYPE":0,"CLASSIFICATION_TYPE":"U","NORAD_CAT_ID":61554,"ELEMENT_SET_NO":999,"REV_AT_EPOCH":8237,"BSTAR":0.00034568137,"MEAN_MOTION_DOT":7.89e-6,"MEAN_MOTION_DDOT":0},{"OBJECT_NAME":"FENGYUN 1C DEB","OBJECT_ID":"1999-025EDU","EPOCH":"2026-02-22T06:14:45.816864","MEAN_MOTION":14.03676296,"ECCENTRICITY":0.0122676,"INCLINATION":98.7204,"RA_OF_ASC_NODE":48.0527,"ARG_OF_PERICENTER":214.184,"MEAN_ANOMALY":145.1385,"EPHEMERIS_TYPE":0,"CLASSIFICATION_TYPE":"U","NORAD_CAT_ID":37036,"ELEMENT_SET_NO":999,"REV_AT_EPOCH":64751,"BSTAR":0.00047072,"MEAN_MOTION_DOT":7.49e-6,"MEAN_MOTION_DDOT":0}]
